[{
    "OBJECT_NAME": "LEMUR-2-LISASAURUS",
    "OBJECT_ID": "2017-036R",
    "EPOCH": "2022-07-20T15:31:33.926880",
    "MEAN_MOTION": 15.31066241,
    "ECCENTRICITY": 0.0009396,
    "INCLINATION": 97.2032,
    "RA_OF_ASC_NODE": 243.9347,
    "ARG_OF_PERICENTER": 192.2827,
    "MEAN_ANOMALY": 167.8187,
    "EPHEMERIS_TYPE": 0,
    "CLASSIFICATION_TYPE": "U",
    "NORAD_CAT_ID": 42780,
    "ELEMENT_SET_NO": 999,
    "REV_AT_EPOCH": 28213,
    "BSTAR": 0.00064062,
    "MEAN_MOTION_DOT": 0.00019204,
    "MEAN_MOTION_DDOT": 0
},{
    "OBJECT_NAME": "LEMUR-2-SAM-AMELIA",
    "OBJECT_ID": "2017-036S",
    "EPOCH": "2022-07-20T16:40:38.954784",
    "MEAN_MOTION": 15.29576149,
    "ECCENTRICITY": 0.0009837,
    "INCLINATION": 97.2037,
    "RA_OF_ASC_NODE": 244.7637,
    "ARG_OF_PERICENTER": 191.5971,
    "MEAN_ANOMALY": 168.5045,
    "EPHEMERIS_TYPE": 0,
    "CLASSIFICATION_TYPE": "U",
    "NORAD_CAT_ID": 42781,
    "ELEMENT_SET_NO": 999,
    "REV_AT_EPOCH": 28216,
    "BSTAR": 0.00047311,
    "MEAN_MOTION_DOT": 0.00013517,
    "MEAN_MOTION_DDOT": 0
},{
    "OBJECT_NAME": "LEMUR-2-MCPEAKE",
    "OBJECT_ID": "2017-036T",
    "EPOCH": "2022-07-21T02:16:25.269024",
    "MEAN_MOTION": 15.32425555,
    "ECCENTRICITY": 0.0009049,
    "INCLINATION": 97.2007,
    "RA_OF_ASC_NODE": 246.0359,
    "ARG_OF_PERICENTER": 184.8465,
    "MEAN_ANOMALY": 175.2692,
    "EPHEMERIS_TYPE": 0,
    "CLASSIFICATION_TYPE": "U",
    "NORAD_CAT_ID": 42782,
    "ELEMENT_SET_NO": 999,
    "REV_AT_EPOCH": 28231,
    "BSTAR": 0.00047027,
    "MEAN_MOTION_DOT": 0.00014678,
    "MEAN_MOTION_DDOT": 0
},{
    "OBJECT_NAME": "DIAMOND RED",
    "OBJECT_ID": "2017-036U",
    "EPOCH": "2022-07-20T15:50:14.244576",
    "MEAN_MOTION": 15.27963319,
    "ECCENTRICITY": 0.0009711,
    "INCLINATION": 97.1974,
    "RA_OF_ASC_NODE": 241.3198,
    "ARG_OF_PERICENTER": 201.9448,
    "MEAN_ANOMALY": 158.1377,
    "EPHEMERIS_TYPE": 0,
    "CLASSIFICATION_TYPE": "U",
    "NORAD_CAT_ID": 42783,
    "ELEMENT_SET_NO": 999,
    "REV_AT_EPOCH": 28201,
    "BSTAR": 0.00038151,
    "MEAN_MOTION_DOT": 0.00010356,
    "MEAN_MOTION_DDOT": 0
},{
    "OBJECT_NAME": "PEGASUS",
    "OBJECT_ID": "2017-036V",
    "EPOCH": "2022-07-20T21:07:24.724128",
    "MEAN_MOTION": 15.29523117,
    "ECCENTRICITY": 0.0009555,
    "INCLINATION": 97.1969,
    "RA_OF_ASC_NODE": 242.7376,
    "ARG_OF_PERICENTER": 197.3779,
    "MEAN_ANOMALY": 162.7136,
    "EPHEMERIS_TYPE": 0,
    "CLASSIFICATION_TYPE": "U",
    "NORAD_CAT_ID": 42784,
    "ELEMENT_SET_NO": 999,
    "REV_AT_EPOCH": 28212,
    "BSTAR": 0.00043543,
    "MEAN_MOTION_DOT": 0.00012412,
    "MEAN_MOTION_DDOT": 0
},{
    "OBJECT_NAME": "DIAMOND GREEN",
    "OBJECT_ID": "2017-036W",
    "EPOCH": "2022-07-20T18:57:37.678752",
    "MEAN_MOTION": 15.27896675,
    "ECCENTRICITY": 0.0009526,
    "INCLINATION": 97.1977,
    "RA_OF_ASC_NODE": 241.5099,
    "ARG_OF_PERICENTER": 202.4678,
    "MEAN_ANOMALY": 157.6146,
    "EPHEMERIS_TYPE": 0,
    "CLASSIFICATION_TYPE": "U",
    "NORAD_CAT_ID": 42785,
    "ELEMENT_SET_NO": 999,
    "REV_AT_EPOCH": 28210,
    "BSTAR": 0.00035879,
    "MEAN_MOTION_DOT": 9.714e-5,
    "MEAN_MOTION_DDOT": 0
},{
    "OBJECT_NAME": "DIAMOND BLUE",
    "OBJECT_ID": "2017-036X",
    "EPOCH": "2022-07-20T01:39:05.424192",
    "MEAN_MOTION": 15.27900091,
    "ECCENTRICITY": 0.0009474,
    "INCLINATION": 97.1976,
    "RA_OF_ASC_NODE": 240.8049,
    "ARG_OF_PERICENTER": 205.654,
    "MEAN_ANOMALY": 154.4231,
    "EPHEMERIS_TYPE": 0,
    "CLASSIFICATION_TYPE": "U",
    "NORAD_CAT_ID": 42786,
    "ELEMENT_SET_NO": 999,
    "REV_AT_EPOCH": 28199,
    "BSTAR": 0.00041537,
    "MEAN_MOTION_DOT": 0.0001126,
    "MEAN_MOTION_DDOT": 0
},{
    "OBJECT_NAME": "NUDTSAT",
    "OBJECT_ID": "2017-036Y",
    "EPOCH": "2022-07-20T21:20:04.436736",
    "MEAN_MOTION": 15.34777235,
    "ECCENTRICITY": 0.0008289,
    "INCLINATION": 97.2002,
    "RA_OF_ASC_NODE": 247.0985,
    "ARG_OF_PERICENTER": 181.3255,
    "MEAN_ANOMALY": 178.7976,
    "EPHEMERIS_TYPE": 0,
    "CLASSIFICATION_TYPE": "U",
    "NORAD_CAT_ID": 42787,
    "ELEMENT_SET_NO": 999,
    "REV_AT_EPOCH": 28222,
    "BSTAR": 0.00064706,
    "MEAN_MOTION_DOT": 0.00021796,
    "MEAN_MOTION_DDOT": 0
},{
    "OBJECT_NAME": "SUCHAI",
    "OBJECT_ID": "2017-036Z",
    "EPOCH": "2022-07-20T02:49:00.240096",
    "MEAN_MOTION": 15.31413862,
    "ECCENTRICITY": 0.0008983,
    "INCLINATION": 97.1975,
    "RA_OF_ASC_NODE": 243.7211,
    "ARG_OF_PERICENTER": 193.0526,
    "MEAN_ANOMALY": 167.0484,
    "EPHEMERIS_TYPE": 0,
    "CLASSIFICATION_TYPE": "U",
    "NORAD_CAT_ID": 42788,
    "ELEMENT_SET_NO": 999,
    "REV_AT_EPOCH": 28218,
    "BSTAR": 0.00061767,
    "MEAN_MOTION_DOT": 0.00018711,
    "MEAN_MOTION_DDOT": 0
},{
    "OBJECT_NAME": "SKCUBE",
    "OBJECT_ID": "2017-036AA",
    "EPOCH": "2022-07-20T15:41:16.368288",
    "MEAN_MOTION": 15.30605199,
    "ECCENTRICITY": 0.0009034,
    "INCLINATION": 97.1974,
    "RA_OF_ASC_NODE": 243.6707,
    "ARG_OF_PERICENTER": 192.9021,
    "MEAN_ANOMALY": 167.199,
    "EPHEMERIS_TYPE": 0,
    "CLASSIFICATION_TYPE": "U",
    "NORAD_CAT_ID": 42789,
    "ELEMENT_SET_NO": 999,
    "REV_AT_EPOCH": 28215,
    "BSTAR": 0.00047623,
    "MEAN_MOTION_DOT": 0.00014044,
    "MEAN_MOTION_DDOT": 0
},{
    "OBJECT_NAME": "VZLUSAT-1",
    "OBJECT_ID": "2017-036AB",
    "EPOCH": "2022-07-20T15:19:56.640864",
    "MEAN_MOTION": 15.3460933,
    "ECCENTRICITY": 0.0008391,
    "INCLINATION": 97.1999,
    "RA_OF_ASC_NODE": 246.8167,
    "ARG_OF_PERICENTER": 181.5756,
    "MEAN_ANOMALY": 178.5463,
    "EPHEMERIS_TYPE": 0,
    "CLASSIFICATION_TYPE": "U",
    "NORAD_CAT_ID": 42790,
    "ELEMENT_SET_NO": 999,
    "REV_AT_EPOCH": 28233,
    "BSTAR": 0.00058696,
    "MEAN_MOTION_DOT": 0.00019655,
    "MEAN_MOTION_DDOT": 0
},{
    "OBJECT_NAME": "ROBUSTA-1B",
    "OBJECT_ID": "2017-036AD",
    "EPOCH": "2022-07-21T02:53:47.564160",
    "MEAN_MOTION": 15.31183085,
    "ECCENTRICITY": 0.0008662,
    "INCLINATION": 97.1973,
    "RA_OF_ASC_NODE": 244.7105,
    "ARG_OF_PERICENTER": 190.34,
    "MEAN_ANOMALY": 169.7665,
    "EPHEMERIS_TYPE": 0,
    "CLASSIFICATION_TYPE": "U",
    "NORAD_CAT_ID": 42792,
    "ELEMENT_SET_NO": 999,
    "REV_AT_EPOCH": 28227,
    "BSTAR": 0.00049665,
    "MEAN_MOTION_DOT": 0.00014915,
    "MEAN_MOTION_DDOT": 0
},{
    "OBJECT_NAME": "CICERO 6",
    "OBJECT_ID": "2017-036AE",
    "EPOCH": "2022-07-20T21:05:33.142848",
    "MEAN_MOTION": 15.27836765,
    "ECCENTRICITY": 0.00083,
    "INCLINATION": 97.1954,
    "RA_OF_ASC_NODE": 242.0685,
    "ARG_OF_PERICENTER": 199.2782,
    "MEAN_ANOMALY": 160.8145,
    "EPHEMERIS_TYPE": 0,
    "CLASSIFICATION_TYPE": "U",
    "NORAD_CAT_ID": 42793,
    "ELEMENT_SET_NO": 999,
    "REV_AT_EPOCH": 28217,
    "BSTAR": 0.00033046,
    "MEAN_MOTION_DOT": 8.921e-5,
    "MEAN_MOTION_DDOT": 0
}]
