LEMUR-2-LISASAURUS      
1 42780U 17036R   22201.64692045  .00019204  00000+0  64062-3 0  9997
2 42780  97.2032 243.9347 0009396 192.2827 167.8187 15.31066241282139
LEMUR-2-SAM-AMELIA      
1 42781U 17036S   22201.69489531  .00013517  00000+0  47311-3 0  9996
2 42781  97.2037 244.7637 0009837 191.5971 168.5045 15.29576149282162
LEMUR-2-MCPEAKE         
1 42782U 17036T   22202.09473691  .00014678  00000+0  47027-3 0  9995
2 42782  97.2007 246.0359 0009049 184.8465 175.2692 15.32425555282312
DIAMOND RED             
1 42783U 17036U   22201.65988709  .00010356  00000+0  38151-3 0  9995
2 42783  97.1974 241.3198 0009711 201.9448 158.1377 15.27963319282018
PEGASUS                 
1 42784U 17036V   22201.88014727  .00012412  00000+0  43543-3 0  9997
2 42784  97.1969 242.7376 0009555 197.3779 162.7136 15.29523117282123
DIAMOND GREEN           
1 42785U 17036W   22201.79001943  .00009714  00000+0  35879-3 0  9998
2 42785  97.1977 241.5099 0009526 202.4678 157.6146 15.27896675282108
DIAMOND BLUE            
1 42786U 17036X   22201.06881278  .00011260  00000+0  41537-3 0  9993
2 42786  97.1976 240.8049 0009474 205.6540 154.4231 15.27900091281994
NUDTSAT                 
1 42787U 17036Y   22201.88894024  .00021796  00000+0  64706-3 0  9995
2 42787  97.2002 247.0985 0008289 181.3255 178.7976 15.34777235282222
SUCHAI                  
1 42788U 17036Z   22201.11736389  .00018711  00000+0  61767-3 0  9998
2 42788  97.1975 243.7211 0008983 193.0526 167.0484 15.31413862282188
SKCUBE                  
1 42789U 17036AA  22201.65366167  .00014044  00000+0  47623-3 0  9991
2 42789  97.1974 243.6707 0009034 192.9021 167.1990 15.30605199282158
VZLUSAT-1               
1 42790U 17036AB  22201.63885001  .00019655  00000+0  58696-3 0  9999
2 42790  97.1999 246.8167 0008391 181.5756 178.5463 15.34609330282332
ROBUSTA-1B              
1 42792U 17036AD  22202.12068940  .00014915  00000+0  49665-3 0  9991
2 42792  97.1973 244.7105 0008662 190.3400 169.7665 15.31183085282270
CICERO 6                
1 42793U 17036AE  22201.87885582  .00008921  00000+0  33046-3 0  9998
2 42793  97.1954 242.0685 0008300 199.2782 160.8145 15.27836765282173
